[{"OBJECT_NAME":"STARLINK-30710","OBJECT_ID":"2023-148D","EPOCH":"2026-03-09T02:12:54.289728","MEAN_MOTION":15.3019127,"ECCENTRICITY":0.00013365,"INCLINATION":53.162,"RA_OF_ASC_NODE":16.9954,"ARG_OF_PERICENTER":96.4809,"MEAN_ANOMALY":263.6344,"EPHEMERIS_TYPE":0,"CLASSIFICATION_TYPE":"U","NORAD_CAT_ID":57938,"ELEMENT_SET_NO":999,"REV_AT_EPOCH":13846,"BSTAR":2.036051e-6,"MEAN_MOTION_DOT":-2.99e-6,"MEAN_MOTION_DDOT":0},{"OBJECT_NAME":"COSMOS 1862","OBJECT_ID":"1987-055A","EPOCH":"2026-03-09T22:37:02.390592","MEAN_MOTION":15.30492139,"ECCENTRICITY":0.00097484,"INCLINATION":82.4856,"RA_OF_ASC_NODE":47.1862,"ARG_OF_PERICENTER":26.6325,"MEAN_ANOMALY":333.5414,"EPHEMERIS_TYPE":0,"CLASSIFICATION_TYPE":"U","NORAD_CAT_ID":18152,"ELEMENT_SET_NO":999,"REV_AT_EPOCH":8987,"BSTAR":0.00034125048,"MEAN_MOTION_DOT":0.00010107,"MEAN_MOTION_DDOT":0}]
